SSOT                    
1 38011U 11076E   21150.42411749  .00000146  00000-0  24976-4 0  9992
2 38011  97.8305 226.8228 0001714  85.9860 274.1547 14.81973521511307
PLEIADES 1A             
1 38012U 11076F   21150.44615695 -.00000689  00000-0 -13847-3 0  9999
2 38012  98.1998 225.9429 0001814  91.0430 269.0928 14.58542641503244
NIGCOMSAT 1R            
1 38014U 11077A   21150.26445587  .00000136  00000-0  00000+0 0  9991
2 38014   0.0208 240.8598 0002153 202.1030 302.7011  1.00270584 34540
ZIYUAN 1-02C (ZY 1-02C) 
1 38038U 11079A   21150.43774712  .00000042  00000-0  30375-4 0  9992
2 38038  98.6385 210.6712 0006446 330.6778  29.4049 14.35309471494547
GLOBALSTAR M084         
1 38040U 11080A   21149.69960594 -.00000080  00000-0  13174-3 0  9998
2 38040  52.0001 232.5852 0000277 113.5844  51.6393 12.62264458435924
GLOBALSTAR M080         
1 38041U 11080B   21149.74737760 -.00000078  00000-0  14476-3 0  9995
2 38041  52.0053 233.5253 0000209 110.7910  32.4691 12.62269190436035
GLOBALSTAR M082         
1 38042U 11080C   21149.84600234 -.00000098  00000-0  29625-4 0  9997
2 38042  52.0058 188.5162 0000523 179.2437 351.7122 12.62265697436698
GLOBALSTAR M092         
1 38043U 11080D   21149.81670222 -.00000087  00000-0  94395-4 0  9993
2 38043  52.0085 278.8983 0000899 100.3941  57.5021 12.62263626435142
GLOBALSTAR M090         
1 38044U 11080E   21149.87220241 -.00000102  00000-0  11429-4 0  9997
2 38044  51.9862 184.1515 0000221 202.9444 327.8391 12.62266803436795
GLOBALSTAR M086         
1 38045U 11080F   21149.81950552 -.00000099  00000-0  29078-4 0  9991
2 38045  51.9872 184.7487 0001239 291.5246 239.2990 12.62266373436732
ZIYUAN 3-1 (ZY 3-1)     
1 38046U 12001A   21150.49414446  .00000912  00000-0  43805-4 0  9996
2 38046  97.3811 224.8297 0003748  63.1022 353.5013 15.21308512521389
FENGYUN 2F              
1 38049U 12002A   21149.77024248 -.00000366  00000-0  00000-0 0  9996
2 38049   2.8710  82.1320 0003611  54.3643 140.4370  1.00264765 34395
WGS F4 (USA 233)        
1 38070U 12003A   21149.88897499 -.00000223  00000-0  00000-0 0  9991
2 38070   0.0250 308.1598 0000537 147.1670 200.7083  1.00269606 25650
LARES                   
1 38077U 12006A   21150.53858963 -.00000016  00000-0  14056-3 0  9997
2 38077  69.4937 201.3578 0009688 326.9407  33.1019 12.54931417425862
SES-4                   
1 38087U 12007A   21149.67739057 -.00000176  00000-0  00000-0 0  9992
2 38087   0.0134 349.9390 0002443  93.9656  25.3736  1.00271968 33752
BEIDOU 11               
1 38091U 12008A   21149.82757705  .00000046  00000-0  00000-0 0  9990
2 38091   1.5131  67.2801 0008574 325.2216 211.8647  1.00277316 33982
MUOS-1                  
1 38093U 12009A   21149.80549983 -.00000136  00000-0  00000-0 0  9999
2 38093   2.6142  20.1470 0057745   2.7689  54.6188  1.00272561 33950
INTELSAT 22 (IS-22)     
1 38098U 12011A   21150.05507168 -.00000068  00000-0  00000+0 0  9998
2 38098   0.0106  65.7771 0002597   8.3525 265.5902  1.00271729 33561
APSTAR 7                
1 38107U 12013A   21150.05594403 -.00000110  00000-0  00000+0 0  9997
2 38107   0.0405  97.8324 0002959 341.6054 264.9905  1.00271161 33674
YAHSAT 1B               
1 38245U 12016A   21150.05018646  .00000118  00000-0  00000+0 0  9990
2 38245   0.0235 316.7456 0002993 123.7153 232.9982  1.00269209 33427
BEIDOU 12               
1 38250U 12018A   21149.72679419 -.00000103  00000-0  00000-0 0  9997
2 38250  56.7545   6.2297 0020305 249.8591  88.8332  1.86234457 61937
BEIDOU 13               
1 38251U 12018B   21150.49584182 -.00000105  00000-0  00000+0 0  9997
2 38251  56.6756   5.5536 0011257 254.9901 283.7253  1.86234314 61959
AEHF-2 (USA 235)        
1 38254U 12019A   21149.81186806 -.00000284  00000-0  00000-0 0  9995
2 38254   2.5924  56.1355 0008206  35.3450  20.7019  1.00276942 32361
TIANHUI 1-02            
1 38256U 12020A   21150.38944706  .00000985  00000-0  44575-4 0  9990
2 38256  97.4546 276.7209 0016325 188.1093 257.7881 15.23187636504088
YAOGAN 14               
1 38257U 12021A   21150.49161535  .00001116  00000-0  49731-4 0  9991
2 38257  97.4911 286.8733 0001976  98.3657 326.7817 15.23522171505234
JCSAT-13                
1 38331U 12023A   21149.99365758 -.00000365  00000-0  00000+0 0  9999
2 38331   0.0439 118.3175 0002862 322.5924 288.5273  1.00270687 33087
VINASAT-2               
1 38332U 12023B   21149.85164764 -.00000337  00000-0  00000-0 0  9999
2 38332   0.0097 329.9934 0002876 116.1531 239.8798  1.00272290 28163
GCOM-W1 (SHIZUKU)       
1 38337U 12025A   21149.83574160  .00000066  00000-0  24678-4 0  9998
2 38337  98.2082  90.7922 0001280  39.1512 342.8993 14.57118215480450
ARIRANG-3 (KOMPSAT-3)   
1 38338U 12025B   21150.45856590  .00000046  00000-0  18580-4 0  9992
2 38338  98.1430  90.4915 0011940 128.4994 231.7274 14.61711728482022
SDS-4                   
1 38339U 12025C   21150.23646508  .00000064  00000-0  19117-4 0  9992
2 38339  98.2979 203.9125 0008520  51.4672 308.7296 14.70646282484689
NIMIQ 6                 
1 38342U 12026A   21149.59184062 -.00000181  00000-0  00000-0 0  9994
2 38342   0.0209  43.3661 0002808  22.3438 303.5636  1.00272346 31922
CHINASAT 2A (ZX 2A)     
1 38352U 12028A   21149.84493046 -.00000301  00000-0  00000-0 0  9994
2 38352   0.0555  93.9893 0003192 342.0001 214.0027  1.00269589 32881
YAOGAN 15               
1 38354U 12029A   21150.41424317 -.00000027  00000-0  48372-4 0  9990
2 38354 100.6272 297.7351 0025920 143.0438 217.2460 13.18264553432490
INTELSAT 19 (IS-19)     
1 38356U 12030A   21149.85845205 -.00000066  00000-0  00000-0 0  9998
2 38356   0.0230  64.9496 0003355   9.3262 288.3550  1.00270303 31942
NUSTAR                  
1 38358U 12031A   21149.07258400  .00001042  00000-0  34776-4 0  9995
2 38358   6.0270 278.0712 0011767 196.2533 163.7218 14.88532296487502
ECHOSTAR 17             
1 38551U 12035A   21150.01930493 -.00000084  00000-0  00000+0 0  9993
2 38551   0.0275 314.9104 0001978 115.9768  76.7135  1.00270196 32631
METEOSAT-10 (MSG-3)     
1 38552U 12035B   21150.04250969  .00000051  00000-0  00000+0 0  9993
2 38552   1.2083   9.2357 0001300  33.8351 229.2019  1.00272248 32727
SES-5                   
1 38652U 12036A   21150.25695358  .00000024  00000-0  00000+0 0  9993
2 38652   0.0422 300.4223 0002370 128.9251 276.1118  1.00271340 32579
KANOPUS-V 1             
1 38707U 12039A   21150.43441172  .00000691  00000-0  35532-4 0  9993
2 38707  97.4650  71.2132 0001941  78.2895  55.4286 15.19735338491197
BKA 2                   
1 38708U 12039B   21150.52516380  .00000466  00000-0  24619-4 0  9992
2 38708  97.3607  55.0873 0001724  81.7254  43.1622 15.20155411491219
EXACTVIEW-1 (ADS-1B)    
1 38709U 12039C   21150.14475297 -.00000008  00000-0  17084-4 0  9993
2 38709  99.0609 200.9823 0012061  80.7955 279.4586 14.24049197460181
TET-1                   
1 38710U 12039D   21149.72249828  .00004973  00000-0  77311-4 0  9999
2 38710  97.5558 202.4676 0002502  53.2908 306.8575 15.54449096497611
MKA-PN 1                
1 38711U 12039E   21149.84098047 -.00000003  00000-0  18871-4 0  9995
2 38711  99.0578 200.0693 0012684  82.1976 278.0641 14.24328943460215
TIANLIAN 1-03           
1 38730U 12040A   21150.26009407  .00000116  00000-0  00000+0 0  9992
2 38730   1.0642  96.5633 0006887 324.1225 301.3194  1.00273604 32498
COSMOS 2481             
1 38733U 12041A   21149.79980931  .00000046  00000-0  26499-3 0  9998
2 38733  82.4730 145.0763 0019588 129.3419 230.9400 12.42385015400807
GONETS-M 3              
1 38734U 12041B   21150.54734216  .00000041  00000-0  21822-3 0  9997
2 38734  82.4716 139.4612 0017358 131.9638 228.2912 12.44819474401348
GONETS-M 4              
1 38736U 12041D   21149.83192607  .00000040  00000-0  21572-3 0  9992
2 38736  82.4766 143.0865 0026517 119.0859 241.2881 12.43822843401089
INTELSAT 20 (IS-20)     
1 38740U 12043A   21149.92271674 -.00000033  00000-0  00000+0 0  9993
2 38740   0.0046 102.2893 0001507  87.6997  98.3479  1.00272402 32337
HYLAS 2                 
1 38741U 12043B   21150.05743701  .00000145  00000-0  00000+0 0  9998
2 38741   0.0284 308.6679 0002204 118.3231 232.5028  1.00270363 32352
EXPRESS-MD2             
1 38745U 12044B   21149.82158244  .00009712  36511-5  25844-3 0  9995
2 38745  49.8758 296.9250 2176888  87.4072 297.2118 11.10347914345701
INTELSAT 21 (IS-21)     
1 38749U 12045A   21150.02916259 -.00000294  00000-0  00000+0 0  9991
2 38749   0.0287 311.3325 0002491 124.3330 124.6019  1.00270842 32147
SPOT 6                  
1 38755U 12047A   21150.46207890  .00000008  00000-0  11498-4 0  9992
2 38755  98.2011 218.4015 0001304  90.7927 269.3428 14.58547934464327
AEROCUBE 4.5A           
1 38767U 12048K   21149.69817291  .00000333  00000-0  41015-4 0  9990
2 38767  64.6658 233.3511 0150565  12.7921 347.6943 14.92769269 93474
AEROCUBE 4.5B           
1 38768U 12048L   21149.84131295  .00000783  00000-0  70009-4 0  9995
2 38768  64.6655 195.1626 0142499   7.1482 353.1617 14.96627976 93709
METOP-B                 
1 38771U 12049A   21150.36413281  .00000005  00000-0  22430-4 0  9999
2 38771  98.7159 210.6690 0002261  81.9835 349.0388 14.21483024451303
BEIDOU 15               
1 38775U 12050B   21150.33198405  .00000030  00000-0  00000+0 0  9992
2 38775  55.2011 124.5932 0016233 317.3632 308.8924  1.86232411 59323
ASTRA 2F                
1 38778U 12051A   21150.26166432  .00000141  00000-0  00000+0 0  9996
2 38778   0.0557 227.4625 0001002 283.9110 218.9985  1.00273147 31806
GSAT-10                 
1 38779U 12051B   21149.92789088 -.00000174  00000-0  00000-0 0  9994
2 38779   0.0074  55.7247 0001724  31.0704 217.9330  1.00271812 31625
VRSS-1                  
1 38782U 12052A   21150.57870033  .00000072  00000-0  17478-4 0  9990
2 38782  97.7116 202.4657 0018672 114.7631 245.5529 14.76077506467398
